      2.10          N: GNSS NAV DATA                        RINEX VERSION / TYPE
fic2rin                                 05/24/2024 00:59:02 PGM / RUN BY / DATE
                                                            END OF HEADER
28 24  5 23  8  0  0.0 -.256102997810D-03 -.165982783074D-10  .000000000000D+00
     .176000000000D+03 -.186562500000D+02  .490556147918D-08  .120350783077D+01
    -.940635800362D-06  .346669228747D-03  .687502324581D-05  .515364527702D+04
     .374400000000D+06 -.298023223877D-07 -.102860600168D+01  .130385160446D-07
     .961063581596D+00  .248250000000D+03  .169063948871D+01 -.799354724904D-08
    -.456804742037D-09  .100000000000D+01  .231500000000D+04  .000000000000D+00
     .240000000000D+01  .000000000000D+00 -.931322574615D-08  .688000000000D+03
     .367200000000D+06  .400000000000D+01
23 24  5 23  8  0  0.0  .232335180044D-03  .932232069317D-11  .000000000000D+00
     .150000000000D+03 -.783125000000D+02  .370872591189D-08  .228249480590D+01
    -.400096178055D-05  .416482985020D-02  .109355896711D-04  .515371995163D+04
     .374400000000D+06 -.856816768646D-07 -.311848362573D+01  .186264514923D-07
     .979554895376D+00  .174593750000D+03 -.296441429722D+01 -.750709841507D-08
     .321799118511D-09  .100000000000D+01  .231500000000D+04  .000000000000D+00
     .240000000000D+01  .000000000000D+00 -.838190317154D-08  .918000000000D+03
     .367200000000D+06  .400000000000D+01
15 24  5 23  7 59 44.0  .162069220096D-03  .409272615798D-11  .000000000000D+00
     .100000000000D+01  .227187500000D+02  .521914596981D-08 -.179044968159D+01
     .142119824886D-05  .156002349686D-01  .674091279507D-05  .515364955521D+04
     .374384000000D+06  .262632966042D-06 -.219605340797D+01  .128522515297D-06
     .935169931593D+00  .227750000000D+03  .131076781840D+01 -.810748056625D-08
     .678956852707D-09  .100000000000D+01  .231500000000D+04  .000000000000D+00
     .240000000000D+01  .000000000000D+00 -.102445483208D-07  .100000000000D+01
     .368160000000D+06  .400000000000D+01
1  24  5 23  7 59 44.0  .270552001894D-03 -.522959453519D-11  .000000000000D+00
     .310000000000D+02  .891562500000D+02  .579416992186D-08  .611599117067D+00
     .491738319397D-05  .133897244232D-01  .103712081909D-04  .515376741219D+04
     .374384000000D+06 -.128522515297D-06  .673968348687D-01  .875443220139D-07
     .954983623838D+00  .177968750000D+03  .103077578422D+01 -.807997942072D-08
    -.382515933324D-09  .100000000000D+01  .231500000000D+04  .000000000000D+00
     .240000000000D+01  .630000000000D+02 -.195577740669D-07  .310000000000D+02
     .369600000000D+06  .400000000000D+01
27 24  5 23  7 59 44.0 -.252602621913D-04 -.170530256582D-11  .000000000000D+00
     .230000000000D+02  .995000000000D+02  .461197782167D-08 -.773359665694D+00
     .526383519173D-05  .125566738425D-01  .158138573170D-05  .515368391609D+04
     .374384000000D+06  .150874257088D-06  .109047588377D+01  .193715095520D-06
     .962198526608D+00  .349093750000D+03  .793330465101D+00 -.851821196058D-08
     .989326923723D-10  .100000000000D+01  .231500000000D+04  .000000000000D+00
     .240000000000D+01  .000000000000D+00  .186264514923D-08  .230000000000D+02
     .373860000000D+06  .400000000000D+01
20 24  5 23  7 59 44.0  .375574920326D-03 -.136424205266D-11  .000000000000D+00
     .300000000000D+01 -.106656250000D+03  .421017537070D-08 -.239518158616D+01
    -.550970435143D-05  .360416783951D-02  .998564064503D-05  .515379811096D+04
     .374384000000D+06  .186264514923D-08  .301627619142D+01 -.484287738800D-07
     .954133119840D+00  .182968750000D+03 -.259183054099D+01 -.774603693924D-08
     .237509893240D-09  .100000000000D+01  .231500000000D+04  .000000000000D+00
     .240000000000D+01  .000000000000D+00 -.838190317154D-08  .300000000000D+01
     .374370000000D+06  .400000000000D+01
1  24  5 23  9 59 44.0  .270514283329D-03 -.522959453519D-11  .000000000000D+00
     .320000000000D+02  .813750000000D+02  .573559605345D-08  .166164778198D+01
     .416301190853D-05  .133904636605D-01  .107530504465D-04  .515376991272D+04
     .381584000000D+06 -.318512320518D-06  .673380753011D-01 -.149011611938D-06
     .954981872725D+00  .171750000000D+03  .103085934464D+01 -.789032866386D-08
    -.231081054025D-09  .100000000000D+01  .231500000000D+04  .000000000000D+00
     .240000000000D+01  .630000000000D+02 -.195577740669D-07  .320000000000D+02
     .374400000000D+06  .400000000000D+01
20 24  5 23  9 59 44.0  .375564675778D-03 -.136424205266D-11  .000000000000D+00
     .400000000000D+01 -.114781250000D+03  .421124684391D-08 -.134474105377D+01
    -.593811273575D-05  .360411673319D-02  .102948397398D-04  .515380033493D+04
     .381584000000D+06  .115483999252D-06  .301622075706D+01 -.763684511185D-07
     .954134540333D+00  .177750000000D+03 -.259216899148D+01 -.778925302508D-08
     .161078138122D-09  .100000000000D+01  .231500000000D+04  .000000000000D+00
     .240000000000D+01  .000000000000D+00 -.838190317154D-08  .400000000000D+01
     .374400000000D+06  .400000000000D+01
15 24  5 23  9 59 44.0  .162099022418D-03  .409272615798D-11  .000000000000D+00
     .900000000000D+01  .198437500000D+02  .531343561164D-08 -.740278271996D+00
     .130198895931D-05  .155999013223D-01  .757165253162D-05  .515364851570D+04
     .381584000000D+06 -.134110450745D-06 -.219611327643D+01  .189989805222D-06
     .935172972999D+00  .224156250000D+03  .131079750686D+01 -.851106880589D-08
     .668956436149D-09  .100000000000D+01  .231500000000D+04  .000000000000D+00
     .240000000000D+01  .000000000000D+00 -.102445483208D-07  .900000000000D+01
     .374400000000D+06  .400000000000D+01
